#cP2014  4  6  0  0  0.00000000      96 ORBIT IGb08 HLM  IGS
## 1787      0.00000000   900.00000000 56753 0.0000000000000
+   32   G01G02G03G04G05G06G07G08G09G10G11G12G13G14G15G16G17
+        G18G19G20G21G22G23G24G25G26G27G28G29G30G31G32  0  0
+          0  0  0  0  0  0  0  0  0  0  0  0  0  0  0  0  0
+          0  0  0  0  0  0  0  0  0  0  0  0  0  0  0  0  0
+          0  0  0  0  0  0  0  0  0  0  0  0  0  0  0  0  0
++         2  3  2  2  2  0  2  2  2  2  2  2  2  2  2  2  2
++         2  2  2  3  2  2  2  2  2  2  2  3  0  2  2  0  0
++         0  0  0  0  0  0  0  0  0  0  0  0  0  0  0  0  0
++         0  0  0  0  0  0  0  0  0  0  0  0  0  0  0  0  0
++         0  0  0  0  0  0  0  0  0  0  0  0  0  0  0  0  0
%c G  cc GPS ccc cccc cccc cccc cccc ccccc ccccc ccccc ccccc
%c cc cc ccc ccc cccc cccc cccc cccc ccccc ccccc ccccc ccccc
%f  1.2500000  1.025000000  0.00000000000  0.000000000000000
%f  0.0000000  0.000000000  0.00000000000  0.000000000000000
%i    0    0    0    0      0      0      0      0         0
%i    0    0    0    0      0      0      0      0         0
/* RAPID ORBIT COMBINATION FROM WEIGHTED AVERAGE OF:        
/* cod emr esa gfz jpl ngs sio usn whu                      
/* REFERENCED TO IGS TIME (IGST) AND TO WEIGHTED MEAN POLE: 
/* PCV:IGS08_1785 OL/AL:FES2004  NONE     Y  ORB:CMB CLK:CMB
*  2014  4  6 11 15  0.00000000
PG01  -7987.608962  19611.483075 -15980.181166      7.420072  3  5  8 113       
PG02  21994.634939 -13959.735726  -3249.078556    488.149287 10  7  6  64       
PG03  -9122.869452  16742.763663  17884.100890    348.217579  6  2  3  92       
PG04  21633.544752  -1707.896646 -15778.926435      6.449255  7  8  5 117       
PG05  18060.123417  -6538.692415  18372.355008   -380.438543  6  6  6 109       
PG06 -24888.886176  -5954.686640   7364.572197 999999.999999
PG07   6691.391864  13502.046516  21919.045609    332.244013  4  6  7 107       
PG08  16007.472017   6267.087592  20571.805655     12.722254  5  5  4 102       
PG09  17576.765703   3045.351135  19206.325896    318.062707  6  4  5  95       
PG10  25092.499882   8445.518143   3751.409688   -120.730497  7  6  6 100       
PG11 -10097.564163  23602.843467  -6853.483579   -478.361121  7  6  5  94       
PG12    944.769956 -15449.795765 -21676.609344    196.855908  6  4  6  88       
PG13   5005.781282  24918.066041   7290.575339     12.577463  6  7  3 101       
PG14 -13580.214177 -12083.927454 -19201.857303    184.060852  7  5  6 111       
PG15   5368.103538 -23014.299429  11774.022408   -172.365088  4     5 110       
PG16 -18187.820465   4705.501048  18880.156629   -224.473205  7  6  4  99       
PG17  14230.490398  10570.091707 -19592.564707    -82.725234  9  7  7  97       
PG18 -17371.717028 -16956.624896  11600.734306    311.574160  6  7     70       
PG19  -8415.670601  21459.675227  12654.839870   -449.360317  7  6  5  83       
PG20    519.804392  16790.552493 -20771.528706    177.016028  6  4  2  86       
PG21 -10314.180579 -12428.961157  21726.580884   -353.726132  6  6  8  87       
PG22 -24452.326483 -10594.171705     29.519143    224.854343  5  5  4  94       
PG23   -804.802691  25876.337246  -4743.383680    -10.098007  8  5  6  83       
PG24  12572.805669 -20019.822663 -12034.659219    -26.226912  8  7  6  74       
PG25 -12250.191288 -17270.715287 -16181.829767     20.978054  8  5  8 135       
PG26  12454.012274 -13207.778843  18619.183274    116.886701  5  5  5 110       
PG27 -12974.808157  11125.918250  20314.892914    -20.172074  7  2  3 127       
PG28  22369.783233  14158.216068   3497.140756    345.207149  7  3  6 104       
PG29  -5257.694367 -25489.401278   5475.209076    523.527987  8  3  5 106       
PG30  15164.342288   7497.407511  20474.587875 999999.999999
PG31 -22940.464332   5839.979224 -12207.979613    334.117067  5  6  8 101       
PG32 -12285.422498  10435.935020 -20959.739316   -454.857340  7  4  5 123       
*  2014  4  6 11 30  0.00000000
PG01  -9455.375403  20509.576427 -13901.982272      7.421538  3  5  8 115       
PG02  21777.073964 -13325.584108  -6022.100838    488.151479 10  8  6  49       
PG03  -9933.660750  14650.427241  19214.374149    348.222511  6  2  4  58       
PG04  20298.564230   -410.091996 -17552.816718      6.450170  7  8  6 108       
PG05  19872.964356  -5646.162498  16741.833560   -380.436688  7  6  6 113       
PG06 -25464.405453  -6386.611038   4590.501143 999999.999999
PG07   4687.733615  14943.765198  21469.146908    332.247938  4  6  6 102       
PG08  14002.851502   7506.590776  21549.122934     12.721569  5  4  4 104       
PG09  15765.600632   4565.186848  20392.156255    318.066143  6  4  5  96       
PG10  25267.440433   8815.831192    973.702399   -120.731008  7  7  7  90       
PG11 -10798.585069  23848.434835  -4233.687064   -478.363904  7  6  5 109       
PG12   3220.429543 -14454.820684 -22121.174820    196.858137  6  4  6 120       
PG13   4818.722971  25617.652425   4498.458692     12.573800  7  7  2 108       
PG14 -13607.284518 -14230.421525 -17681.150708    184.057782  6  4  6 127       
PG15   5906.595237 -21587.976998  14021.269516   -172.366731  4     5 111       
PG16 -20012.022565   3756.497050  17207.548317   -224.471891  7  6  4  87       
PG17  14340.288054  12772.305578 -18188.266966    -82.728255  9  7  7 100       
PG18 -15987.227688 -16684.034227  13826.591197    311.576656  5  7     51       
PG19  -8713.708836  19861.198574  14886.331402   -449.362262  7  6  6  81       
PG20  -1753.801768  16095.180423 -21246.834941    177.019739  7  3  2  82       
PG21  -8449.206627 -13874.630500  21611.855226   -353.727997  6  6  8  90       
PG22 -24195.644460 -10863.476653   2795.016725    224.856777  7  5  4  93       
PG23  -1198.591881  25201.988458  -7487.796837    -10.101131  8  6  6 104       
PG24  13685.343669 -20609.002887  -9560.835574    -26.227940  8  6  6  49       
PG25 -10404.664589 -16672.217811 -17994.722716     20.978988  8  5  8 137       
PG26  12682.695312 -10875.920512  19911.167415    116.876847  4  5  5 119       
PG27 -13395.313836   8787.391916  21174.443937    -20.171568  7  1  3 118       
PG28  21858.702440  14093.383420   6324.125515    345.209886  7  2  6 111       
PG29  -5075.407218 -25967.338959   2656.774358    523.530323  8  3  5 114       
PG30  13214.254580   8879.503283  21256.197062 999999.999999
PG31 -21791.887989   4808.995193 -14489.630123    334.117105  5  6  7 120       
PG32 -14362.148617   9270.223905 -20126.129827   -454.850440  7  4  5 117       
*  2014  4  6 11 45  0.00000000
PG01 -10687.965789  21318.381240 -11583.453493      7.423003  3  5  8 115       
PG02  21361.646109 -12468.810836  -8687.520003    488.153403 10  9  6  84       
PG03 -10888.049920  12471.940181  20197.253300    348.227195  6  2  4  97       
PG04  18894.672994   1072.808564 -19033.924017      6.450193  7  8  6  99       
PG05  21537.179731  -4909.497862  14824.209415   -380.435058  8  5  6 107       
PG06 -25762.784249  -6679.654885   1738.206965 999999.999999
PG07   2817.215398  16447.359821  20650.445332    332.251694  4  6  6  83       
PG08  11997.033295   8915.674056  22164.388169     12.722149  5  4  4  92       
PG09  13949.932985   6260.857041  21211.497777    318.067910  6  4  5  80       
PG10  25167.311026   9070.939586  -1820.389568   -120.731200  7  7  7 101       
PG11 -11341.812578  23865.543701  -1540.728902   -478.366991  7  6  5  95       
PG12   5577.765244 -13579.206451 -22187.695733    196.860271  6  4  6 118       
PG13   4639.742049  26004.635100   1627.957379     12.570378  7  7  2  97       
PG14 -13725.112216 -16180.748091 -15852.812031    184.054624  6  3  6 108       
PG15   6568.058715 -19955.074111  16023.111806   -172.368534  5     5 110       
PG16 -21694.082191   2990.073594  15242.074198   -224.470568  7  6  5  95       
PG17  14538.712274  14786.420265 -16467.041155    -82.730795  9  8  7  99       
PG18 -14370.860251 -16404.572186  15824.102380    311.578644  5  6     52       
PG19  -9119.322047  18042.191600  16854.168410   -449.364434  7  6  7  93       
PG20  -4090.104173  15499.451622 -21362.749603    177.023142  6  3  2 105       
PG21  -6677.358365 -15392.343077  21144.513912   -353.729693  5  6  9  78       
PG22 -23660.914399 -11046.620816   5513.010254    224.859180  5  5  5 105       
PG23  -1683.366424  24247.449988 -10099.755741    -10.103619  8  7  6  72       
PG24  14551.538319 -21060.241155  -6921.762000    -26.228820  8  6  6  77       
PG25  -8350.561387 -16117.267817 -19500.945009     20.979881  8  6  8 135       
PG26  13046.850200  -8429.924637  20837.645371    116.866709  5  5  5 117       
PG27 -13953.104154   6399.437632  21669.316024    -20.171080  7     3 122       
PG28  21059.084634  13938.036105   9044.802090    345.212464  7  1  7 107       
PG29  -4870.338142 -26136.547112   -207.223787    523.532875  8  4  5 114       
PG30  11284.176172  10401.793540  21671.935666 999999.999999
PG31 -20513.640425   3556.801347 -16523.227423    334.117302  5  6  7 119       
PG32 -16392.389854   8251.820231 -18940.124869   -454.843545  6  4  5 114       
EOF
